STARLINK-30586          
1 58084U 23160K   25363.59390514 -.00000865  00000+0 -48943-4 0  9994
2 58084  43.0034 101.1409 0001481 288.3263  71.7418 15.02544866122377
STARLINK-30609          
1 58085U 23160L   25364.32183737 -.00000385  00000+0 -13418-4 0  9990
2 58085  43.0069  97.1418 0001793 270.4170  89.6467 15.02531235122485
STARLINK-30583          
1 58086U 23160M   25363.98610586  .00000719  00000+0  68317-4 0  9996
2 58086  43.0042  98.9218 0001985 268.8208  91.2407 15.02541567122437
STARLINK-30557          
1 58087U 23160N   25364.31739398  .00001091  00000+0  95813-4 0  9993
2 58087  43.0021  97.1124 0001545 281.1153  78.9516 15.02531892122489
STARLINK-30591          
1 58088U 23160P   25364.31184803  .00000315  00000+0  38419-4 0  9996
2 58088  43.0065  97.0678 0001905 277.9534  82.1092 15.02529727122487
STARLINK-30584          
1 58089U 23160Q   25364.24204139  .00000560  00000+0  56504-4 0  9991
2 58089  43.0018  97.4033 0000932 282.9197  77.1541 15.02541139122478
STARLINK-30590          
1 58090U 23160R   25363.98277855  .00000773  00000+0  72307-4 0  9993
2 58090  43.0034  98.8952 0001603 278.4173  81.6488 15.02541915122431
STARLINK-30608          
1 58091U 23160S   25364.23870323  .00002774  00000+0  22035-3 0  9997
2 58091  43.0034  97.3756 0001541 277.0526  83.0141 15.02539755122471
STARLINK-30615          
1 58092U 23160T   25364.30075177  .00006067  00000+0  46423-3 0  9996
2 58092  43.0079  96.9827 0001584 261.8455  98.2208 15.02501296122486
STARLINK-30578          
1 58093U 23160U   25364.27866199  .00000140  00000+0  25446-4 0  9994
2 58093  43.0035  97.6654 0001353 277.9064  82.1625 15.02537014122474
STARLINK-30574          
1 58094U 23160V   25364.29852859 -.00000740  00000+0 -39732-4 0  9996
2 58094  43.0018  96.9659 0000969 282.6552  77.4182 15.02533745122483
STARLINK-30570          
1 58095U 23160W   25364.29517737  .00002311  00000+0  18602-3 0  9996
2 58095  43.0046  96.9414 0001454 274.4140  85.6537 15.02547078122485
STARLINK-30581          
1 58096U 23160X   25363.95626486 -.00000419  00000+0 -15942-4 0  9995
2 58096  43.0030  99.5396 0001743 274.8613  85.2030 15.02531953122420
STARLINK-30594          
1 58097U 23161A   25364.07436156  .00000949  00000+0  44174-4 0  9999
2 58097  53.1602 128.8601 0000638  99.4802 260.6271 15.30184189123766
STARLINK-30614          
1 58098U 23161B   25364.33245555  .00000186  00000+0  18404-4 0  9990
2 58098  53.1608 127.6260 0001127  95.9546 264.1583 15.30189916123804
STARLINK-30607          
1 58099U 23161C   25364.33569726  .00000377  00000+0  24839-4 0  9991
2 58099  53.1601 117.6490 0001015  82.3418 277.7698 15.30197221123935
