[{"OBJECT_NAME":"STARLINK-30586","OBJECT_ID":"2023-160K","EPOCH":"2025-12-29T14:15:13.404096","MEAN_MOTION":15.02544866,"ECCENTRICITY":0.00014812,"INCLINATION":43.0034,"RA_OF_ASC_NODE":101.1409,"ARG_OF_PERICENTER":288.3263,"MEAN_ANOMALY":71.7418,"EPHEMERIS_TYPE":0,"CLASSIFICATION_TYPE":"U","NORAD_CAT_ID":58084,"ELEMENT_SET_NO":999,"REV_AT_EPOCH":12237,"BSTAR":-4.8943032e-5,"MEAN_MOTION_DOT":-8.65e-6,"MEAN_MOTION_DDOT":0},{"OBJECT_NAME":"STARLINK-30609","OBJECT_ID":"2023-160L","EPOCH":"2025-12-30T07:43:26.748768","MEAN_MOTION":15.02531235,"ECCENTRICITY":0.00017935,"INCLINATION":43.0069,"RA_OF_ASC_NODE":97.1418,"ARG_OF_PERICENTER":270.417,"MEAN_ANOMALY":89.6467,"EPHEMERIS_TYPE":0,"CLASSIFICATION_TYPE":"U","NORAD_CAT_ID":58085,"ELEMENT_SET_NO":999,"REV_AT_EPOCH":12248,"BSTAR":-1.3417779e-5,"MEAN_MOTION_DOT":-3.85e-6,"MEAN_MOTION_DDOT":0},{"OBJECT_NAME":"STARLINK-30583","OBJECT_ID":"2023-160M","EPOCH":"2025-12-29T23:39:59.546304","MEAN_MOTION":15.02541567,"ECCENTRICITY":0.00019856,"INCLINATION":43.0042,"RA_OF_ASC_NODE":98.9218,"ARG_OF_PERICENTER":268.8208,"MEAN_ANOMALY":91.2407,"EPHEMERIS_TYPE":0,"CLASSIFICATION_TYPE":"U","NORAD_CAT_ID":58086,"ELEMENT_SET_NO":999,"REV_AT_EPOCH":12243,"BSTAR":6.831717e-5,"MEAN_MOTION_DOT":7.19e-6,"MEAN_MOTION_DDOT":0},{"OBJECT_NAME":"STARLINK-30557","OBJECT_ID":"2023-160N","EPOCH":"2025-12-30T07:37:02.839872","MEAN_MOTION":15.02531892,"ECCENTRICITY":0.00015459,"INCLINATION":43.0021,"RA_OF_ASC_NODE":97.1124,"ARG_OF_PERICENTER":281.1153,"MEAN_ANOMALY":78.9516,"EPHEMERIS_TYPE":0,"CLASSIFICATION_TYPE":"U","NORAD_CAT_ID":58087,"ELEMENT_SET_NO":999,"REV_AT_EPOCH":12248,"BSTAR":9.5812798e-5,"MEAN_MOTION_DOT":1.091e-5,"MEAN_MOTION_DDOT":0},{"OBJECT_NAME":"STARLINK-30591","OBJECT_ID":"2023-160P","EPOCH":"2025-12-30T07:29:03.669792","MEAN_MOTION":15.02529727,"ECCENTRICITY":0.00019059,"INCLINATION":43.0065,"RA_OF_ASC_NODE":97.0678,"ARG_OF_PERICENTER":277.9534,"MEAN_ANOMALY":82.1092,"EPHEMERIS_TYPE":0,"CLASSIFICATION_TYPE":"U","NORAD_CAT_ID":58088,"ELEMENT_SET_NO":999,"REV_AT_EPOCH":12248,"BSTAR":3.8418872e-5,"MEAN_MOTION_DOT":3.15e-6,"MEAN_MOTION_DDOT":0},{"OBJECT_NAME":"STARLINK-30584","OBJECT_ID":"2023-160Q","EPOCH":"2025-12-30T05:48:32.376096","MEAN_MOTION":15.02541139,"ECCENTRICITY":9.324e-5,"INCLINATION":43.0018,"RA_OF_ASC_NODE":97.4033,"ARG_OF_PERICENTER":282.9197,"MEAN_ANOMALY":77.1541,"EPHEMERIS_TYPE":0,"CLASSIFICATION_TYPE":"U","NORAD_CAT_ID":58089,"ELEMENT_SET_NO":999,"REV_AT_EPOCH":12247,"BSTAR":5.6503643e-5,"MEAN_MOTION_DOT":5.6e-6,"MEAN_MOTION_DDOT":0},{"OBJECT_NAME":"STARLINK-30590","OBJECT_ID":"2023-160R","EPOCH":"2025-12-29T23:35:12.066720","MEAN_MOTION":15.02541915,"ECCENTRICITY":0.00016031,"INCLINATION":43.0034,"RA_OF_ASC_NODE":98.8952,"ARG_OF_PERICENTER":278.4173,"MEAN_ANOMALY":81.6488,"EPHEMERIS_TYPE":0,"CLASSIFICATION_TYPE":"U","NORAD_CAT_ID":58090,"ELEMENT_SET_NO":999,"REV_AT_EPOCH":12243,"BSTAR":7.2307199e-5,"MEAN_MOTION_DOT":7.73e-6,"MEAN_MOTION_DDOT":0},{"OBJECT_NAME":"STARLINK-30608","OBJECT_ID":"2023-160S","EPOCH":"2025-12-30T05:43:43.959072","MEAN_MOTION":15.02539755,"ECCENTRICITY":0.0001541,"INCLINATION":43.0034,"RA_OF_ASC_NODE":97.3756,"ARG_OF_PERICENTER":277.0526,"MEAN_ANOMALY":83.0141,"EPHEMERIS_TYPE":0,"CLASSIFICATION_TYPE":"U","NORAD_CAT_ID":58091,"ELEMENT_SET_NO":999,"REV_AT_EPOCH":12247,"BSTAR":0.0002203491,"MEAN_MOTION_DOT":2.774e-5,"MEAN_MOTION_DDOT":0},{"OBJECT_NAME":"STARLINK-30615","OBJECT_ID":"2023-160T","EPOCH":"2025-12-30T07:13:04.952928","MEAN_MOTION":15.02501296,"ECCENTRICITY":0.0001584,"INCLINATION":43.0079,"RA_OF_ASC_NODE":96.9827,"ARG_OF_PERICENTER":261.8455,"MEAN_ANOMALY":98.2208,"EPHEMERIS_TYPE":0,"CLASSIFICATION_TYPE":"U","NORAD_CAT_ID":58092,"ELEMENT_SET_NO":999,"REV_AT_EPOCH":12248,"BSTAR":0.0004642297,"MEAN_MOTION_DOT":6.067e-5,"MEAN_MOTION_DDOT":0},{"OBJECT_NAME":"STARLINK-30578","OBJECT_ID":"2023-160U","EPOCH":"2025-12-30T06:41:16.395936","MEAN_MOTION":15.02537014,"ECCENTRICITY":0.00013531,"INCLINATION":43.0035,"RA_OF_ASC_NODE":97.6654,"ARG_OF_PERICENTER":277.9064,"MEAN_ANOMALY":82.1625,"EPHEMERIS_TYPE":0,"CLASSIFICATION_TYPE":"U","NORAD_CAT_ID":58093,"ELEMENT_SET_NO":999,"REV_AT_EPOCH":12247,"BSTAR":2.5445685e-5,"MEAN_MOTION_DOT":1.4e-6,"MEAN_MOTION_DDOT":0},{"OBJECT_NAME":"STARLINK-30574","OBJECT_ID":"2023-160V","EPOCH":"2025-12-30T07:09:52.870176","MEAN_MOTION":15.02533745,"ECCENTRICITY":9.697e-5,"INCLINATION":43.0018,"RA_OF_ASC_NODE":96.9659,"ARG_OF_PERICENTER":282.6552,"MEAN_ANOMALY":77.4182,"EPHEMERIS_TYPE":0,"CLASSIFICATION_TYPE":"U","NORAD_CAT_ID":58094,"ELEMENT_SET_NO":999,"REV_AT_EPOCH":12248,"BSTAR":-3.9732205e-5,"MEAN_MOTION_DOT":-7.4e-6,"MEAN_MOTION_DDOT":0},{"OBJECT_NAME":"STARLINK-30570","OBJECT_ID":"2023-160W","EPOCH":"2025-12-30T07:05:03.324768","MEAN_MOTION":15.02547078,"ECCENTRICITY":0.00014544,"INCLINATION":43.0046,"RA_OF_ASC_NODE":96.9414,"ARG_OF_PERICENTER":274.414,"MEAN_ANOMALY":85.6537,"EPHEMERIS_TYPE":0,"CLASSIFICATION_TYPE":"U","NORAD_CAT_ID":58095,"ELEMENT_SET_NO":999,"REV_AT_EPOCH":12248,"BSTAR":0.00018601962,"MEAN_MOTION_DOT":2.311e-5,"MEAN_MOTION_DDOT":0},{"OBJECT_NAME":"STARLINK-30581","OBJECT_ID":"2023-160X","EPOCH":"2025-12-29T22:57:01.283904","MEAN_MOTION":15.02531953,"ECCENTRICITY":0.00017438,"INCLINATION":43.003,"RA_OF_ASC_NODE":99.5396,"ARG_OF_PERICENTER":274.8613,"MEAN_ANOMALY":85.203,"EPHEMERIS_TYPE":0,"CLASSIFICATION_TYPE":"U","NORAD_CAT_ID":58096,"ELEMENT_SET_NO":999,"REV_AT_EPOCH":12242,"BSTAR":-1.5942492e-5,"MEAN_MOTION_DOT":-4.19e-6,"MEAN_MOTION_DDOT":0},{"OBJECT_NAME":"STARLINK-30594","OBJECT_ID":"2023-161A","EPOCH":"2025-12-30T01:47:04.838784","MEAN_MOTION":15.30184189,"ECCENTRICITY":6.387e-5,"INCLINATION":53.1602,"RA_OF_ASC_NODE":128.8601,"ARG_OF_PERICENTER":99.4802,"MEAN_ANOMALY":260.6271,"EPHEMERIS_TYPE":0,"CLASSIFICATION_TYPE":"U","NORAD_CAT_ID":58097,"ELEMENT_SET_NO":999,"REV_AT_EPOCH":12376,"BSTAR":4.4174326e-5,"MEAN_MOTION_DOT":9.49e-6,"MEAN_MOTION_DDOT":0},{"OBJECT_NAME":"STARLINK-30614","OBJECT_ID":"2023-161B","EPOCH":"2025-12-30T07:58:44.159520","MEAN_MOTION":15.30189916,"ECCENTRICITY":0.00011271,"INCLINATION":53.1608,"RA_OF_ASC_NODE":127.626,"ARG_OF_PERICENTER":95.9546,"MEAN_ANOMALY":264.1583,"EPHEMERIS_TYPE":0,"CLASSIFICATION_TYPE":"U","NORAD_CAT_ID":58098,"ELEMENT_SET_NO":999,"REV_AT_EPOCH":12380,"BSTAR":1.8404041e-5,"MEAN_MOTION_DOT":1.86e-6,"MEAN_MOTION_DDOT":0},{"OBJECT_NAME":"STARLINK-30607","OBJECT_ID":"2023-161C","EPOCH":"2025-12-30T08:03:24.243264","MEAN_MOTION":15.30197221,"ECCENTRICITY":0.0001015,"INCLINATION":53.1601,"RA_OF_ASC_NODE":117.649,"ARG_OF_PERICENTER":82.3418,"MEAN_ANOMALY":277.7698,"EPHEMERIS_TYPE":0,"CLASSIFICATION_TYPE":"U","NORAD_CAT_ID":58099,"ELEMENT_SET_NO":999,"REV_AT_EPOCH":12393,"BSTAR":2.4838734e-5,"MEAN_MOTION_DOT":3.77e-6,"MEAN_MOTION_DDOT":0}]
